{
  "type": "FeatureCollection",
  "features": [
    {
      "type": "Feature",
      "properties": {
        "norad_id": 60182,
        "name": "ALOS-4 (DAICHI-4)",
        "group": "resource",
        "lat": -2.321181954120898,
        "lon": 96.73182853661926,
        "alt_km": 634.4420313983046,
        "timestamp": "2025-12-27T18:38:03.137284+00:00",
        "meta_object_name": "ALOS-4 (DAICHI-4)",
        "meta_object_id": "2024-123A",
        "meta_epoch": "2025-12-26T19:55:12.965952",
        "meta_mean_motion": 14.79478137,
        "meta_eccentricity": 0.00014191,
        "meta_inclination": 97.9215,
        "meta_ra_of_asc_node": 95.4758,
        "meta_arg_of_pericenter": 100.4397,
        "meta_mean_anomaly": 259.6975,
        "meta_ephemeris_type": 0,
        "meta_classification_type": "U",
        "meta_norad_cat_id": 60182,
        "meta_element_set_no": 999,
        "meta_rev_at_epoch": 8039,
        "meta_bstar": 0.00030778868,
        "meta_mean_motion_dot": 2.248e-05,
        "meta_mean_motion_ddot": 0,
        "tle_line1": "1 60182U 24123A   25360.83001118  .00002248  00000+0  30779-3 0  9991",
        "tle_line2": "2 60182  97.9215  95.4758 0001419 100.4397 259.6975 14.79478137 80393"
      },
      "geometry": {
        "type": "Point",
        "coordinates": [
          96.73182853661926,
          -2.321181954120898
        ]
      }
    },
    {
      "type": "Feature",
      "properties": {
        "norad_id": 60452,
        "name": "LEGION 3",
        "group": "resource",
        "lat": -19.536622265596613,
        "lon": -151.28583186064606,
        "alt_km": 513.8183466226774,
        "timestamp": "2025-12-27T18:38:03.137294+00:00",
        "meta_object_name": "LEGION 3",
        "meta_object_id": "2024-146A",
        "meta_epoch": "2025-12-27T02:56:33.227520",
        "meta_mean_motion": 15.15909819,
        "meta_eccentricity": 0.00157761,
        "meta_inclination": 45.0004,
        "meta_ra_of_asc_node": 233.0201,
        "meta_arg_of_pericenter": 274.8666,
        "meta_mean_anomaly": 85.0412,
        "meta_ephemeris_type": 0,
        "meta_classification_type": "U",
        "meta_norad_cat_id": 60452,
        "meta_element_set_no": 999,
        "meta_rev_at_epoch": 7591,
        "meta_bstar": 0.00033039135,
        "meta_mean_motion_dot": 6.195e-05,
        "meta_mean_motion_ddot": 0,
        "tle_line1": "1 60452U 24146A   25361.12260680  .00006195  00000+0  33039-3 0  9997",
        "tle_line2": "2 60452  45.0004 233.0201 0015776 274.8666  85.0412 15.15909819 75918"
      },
      "geometry": {
        "type": "Point",
        "coordinates": [
          -151.28583186064606,
          -19.536622265596613
        ]
      }
    },
    {
      "type": "Feature",
      "properties": {
        "norad_id": 60453,
        "name": "LEGION 4",
        "group": "resource",
        "lat": -19.580979693923247,
        "lon": -59.51270332817836,
        "alt_km": 517.7642327417343,
        "timestamp": "2025-12-27T18:38:03.137305+00:00",
        "meta_object_name": "LEGION 4",
        "meta_object_id": "2024-146B",
        "meta_epoch": "2025-12-27T09:16:10.074144",
        "meta_mean_motion": 15.15988619,
        "meta_eccentricity": 0.0007794,
        "meta_inclination": 45.0396,
        "meta_ra_of_asc_node": 323.4014,
        "meta_arg_of_pericenter": 33.7,
        "meta_mean_anomaly": 326.4373,
        "meta_ephemeris_type": 0,
        "meta_classification_type": "U",
        "meta_norad_cat_id": 60453,
        "meta_element_set_no": 999,
        "meta_rev_at_epoch": 7480,
        "meta_bstar": 0.00034629,
        "meta_mean_motion_dot": 6.507e-05,
        "meta_mean_motion_ddot": 0,
        "tle_line1": "1 60453U 24146B   25361.38622771  .00006507  00000+0  34629-3 0  9992",
        "tle_line2": "2 60453  45.0396 323.4014 0007794  33.7000 326.4373 15.15988619 74804"
      },
      "geometry": {
        "type": "Point",
        "coordinates": [
          -59.51270332817836,
          -19.580979693923247
        ]
      }
    },
    {
      "type": "Feature",
      "properties": {
        "norad_id": 60989,
        "name": "SENTINEL-2C",
        "group": "resource",
        "lat": 12.16320030085601,
        "lon": 72.17925733220078,
        "alt_km": 790.1910520705696,
        "timestamp": "2025-12-27T18:38:03.137315+00:00",
        "meta_object_name": "SENTINEL-2C",
        "meta_object_id": "2024-157A",
        "meta_epoch": "2025-12-27T11:51:48.918816",
        "meta_mean_motion": 14.30818428,
        "meta_eccentricity": 0.0001368,
        "meta_inclination": 98.5665,
        "meta_ra_of_asc_node": 73.7631,
        "meta_arg_of_pericenter": 101.7105,
        "meta_mean_anomaly": 258.4231,
        "meta_ephemeris_type": 0,
        "meta_classification_type": "U",
        "meta_norad_cat_id": 60989,
        "meta_element_set_no": 999,
        "meta_rev_at_epoch": 6843,
        "meta_bstar": 7.9815e-05,
        "meta_mean_motion_dot": 1.66e-06,
        "meta_mean_motion_ddot": 0,
        "tle_line1": "1 60989U 24157A   25361.49431619  .00000166  00000+0  79815-4 0  9991",
        "tle_line2": "2 60989  98.5665  73.7631 0001368 101.7105 258.4231 14.30818428 68438"
      },
      "geometry": {
        "type": "Point",
        "coordinates": [
          72.17925733220078,
          12.16320030085601
        ]
      }
    },
    {
      "type": "Feature",
      "properties": {
        "norad_id": 61735,
        "name": "IONOSFERA-M 1",
        "group": "resource",
        "lat": -20.844458708015964,
        "lon": 48.150669540359175,
        "alt_km": 821.5184355789443,
        "timestamp": "2025-12-27T18:38:03.137325+00:00",
        "meta_object_name": "IONOSFERA-M 1",
        "meta_object_id": "2024-199A",
        "meta_epoch": "2025-12-27T12:37:43.768128",
        "meta_mean_motion": 14.22717351,
        "meta_eccentricity": 2.22e-05,
        "meta_inclination": 98.7395,
        "meta_ra_of_asc_node": 231.2602,
        "meta_arg_of_pericenter": 359.7807,
        "meta_mean_anomaly": 0.3371,
        "meta_ephemeris_type": 0,
        "meta_classification_type": "U",
        "meta_norad_cat_id": 61735,
        "meta_element_set_no": 999,
        "meta_rev_at_epoch": 10329,
        "meta_bstar": 5.1281e-05,
        "meta_mean_motion_dot": 7.1e-07,
        "meta_mean_motion_ddot": 0,
        "tle_line1": "1 61735U 24199A   25361.52620102  .00000071  00000+0  51281-4 0  9990",
        "tle_line2": "2 61735  98.7395 231.2602 0000222 359.7807   0.3371 14.22717351103298"
      },
      "geometry": {
        "type": "Point",
        "coordinates": [
          48.150669540359175,
          -20.844458708015964
        ]
      }
    },
    {
      "type": "Feature",
      "properties": {
        "norad_id": 61736,
        "name": "IONOSFERA-M 2",
        "group": "resource",
        "lat": 23.354378067872023,
        "lon": -132.38766316539161,
        "alt_km": 815.1163554414616,
        "timestamp": "2025-12-27T18:38:03.137335+00:00",
        "meta_object_name": "IONOSFERA-M 2",
        "meta_object_id": "2024-199B",
        "meta_epoch": "2025-12-27T13:27:35.382816",
        "meta_mean_motion": 14.22719532,
        "meta_eccentricity": 0.0001877,
        "meta_inclination": 98.7394,
        "meta_ra_of_asc_node": 231.2069,
        "meta_arg_of_pericenter": 91.5002,
        "meta_mean_anomaly": 268.6391,
        "meta_ephemeris_type": 0,
        "meta_classification_type": "U",
        "meta_norad_cat_id": 61736,
        "meta_element_set_no": 999,
        "meta_rev_at_epoch": 10642,
        "meta_bstar": 4.984e-05,
        "meta_mean_motion_dot": 6.7e-07,
        "meta_mean_motion_ddot": 0,
        "tle_line1": "1 61736U 24199B   25361.56082619  .00000067  00000+0  49840-4 0  9993",
        "tle_line2": "2 61736  98.7394 231.2069 0001877  91.5002 268.6391 14.22719532106422"
      },
      "geometry": {
        "type": "Point",
        "coordinates": [
          -132.38766316539161,
          23.354378067872023
        ]
      }
    },
    {
      "type": "Feature",
      "properties": {
        "norad_id": 63772,
        "name": "BIOMASS",
        "group": "resource",
        "lat": 60.88855689516963,
        "lon": 21.324475805336807,
        "alt_km": 662.4096974366803,
        "timestamp": "2025-12-27T18:38:03.137345+00:00",
        "meta_object_name": "BIOMASS",
        "meta_object_id": "2025-090A",
        "meta_epoch": "2025-12-27T11:33:10.502784",
        "meta_mean_motion": 14.67537137,
        "meta_eccentricity": 0.0001029,
        "meta_inclination": 98.0691,
        "meta_ra_of_asc_node": 186.2744,
        "meta_arg_of_pericenter": 86.3274,
        "meta_mean_anomaly": 273.8049,
        "meta_ephemeris_type": 0,
        "meta_classification_type": "U",
        "meta_norad_cat_id": 63772,
        "meta_element_set_no": 999,
        "meta_rev_at_epoch": 3550,
        "meta_bstar": 0.00024484,
        "meta_mean_motion_dot": 1.341e-05,
        "meta_mean_motion_ddot": 0,
        "tle_line1": "1 63772U 25090A   25361.48137156  .00001341  00000+0  24484-3 0  9996",
        "tle_line2": "2 63772  98.0691 186.2744 0001029  86.3274 273.8049 14.67537137 35504"
      },
      "geometry": {
        "type": "Point",
        "coordinates": [
          21.324475805336807,
          60.88855689516963
        ]
      }
    }
  ]
}